{
    "links": {
        "self": "http://www.neowsapp.com/rest/v1/neo/54016588?api_key=iIulBulltgU6a56xZRHN4H3l9WmuAYTsLGpBGhQ2"
    },
    "id": "54016588",
    "neo_reference_id": "54016588",
    "name": "(2020 HN1)",
    "designation": "2020 HN1",
    "nasa_jpl_url": "http://ssd.jpl.nasa.gov/sbdb.cgi?sstr=54016588",
    "absolute_magnitude_h": 25.495,
    "estimated_diameter": {
        "kilometers": {
            "estimated_diameter_min": 0.0211619155,
            "estimated_diameter_max": 0.0473194817
        },
        "meters": {
            "estimated_diameter_min": 21.1619155341,
            "estimated_diameter_max": 47.3194816683
        },
        "miles": {
            "estimated_diameter_min": 0.0131494006,
            "estimated_diameter_max": 0.0294029536
        },
        "feet": {
            "estimated_diameter_min": 69.4288589609,
            "estimated_diameter_max": 155.2476482368
        }
    },
    "is_potentially_hazardous_asteroid": false,
    "close_approach_data": [
        {
            "close_approach_date": "2020-04-29",
            "close_approach_date_full": "2020-Apr-29 05:01",
            "epoch_date_close_approach": 1588136460000,
            "relative_velocity": {
                "kilometers_per_second": "6.8192189972",
                "kilometers_per_hour": "24549.1883898233",
                "miles_per_hour": "15253.9109747766"
            },
            "miss_distance": {
                "astronomical": "0.1131117548",
                "lunar": "44.0004726172",
                "kilometers": "16921277.590042276",
                "miles": "10514394.3355083688"
            },
            "orbiting_body": "Earth"
        },
        {
            "close_approach_date": "2130-09-20",
            "close_approach_date_full": "2130-Sep-20 00:00",
            "epoch_date_close_approach": 5071766400000,
            "relative_velocity": {
                "kilometers_per_second": "4.3036658064",
                "kilometers_per_hour": "15493.1969031647",
                "miles_per_hour": "9626.8700424136"
            },
            "miss_distance": {
                "astronomical": "0.9105150371",
                "lunar": "354.1903494319",
                "kilometers": "136211110.153130977",
                "miles": "84637659.1487504026"
            },
            "orbiting_body": "Juptr"
        }
    ],
    "orbital_data": {
        "orbit_id": "3",
        "orbit_determination_date": "2020-04-23 07:00:52",
        "first_observation_date": "2020-04-16",
        "last_observation_date": "2020-04-22",
        "data_arc_in_days": 6,
        "observations_used": 19,
        "orbit_uncertainty": "9",
        "minimum_orbit_intersection": ".110683",
        "jupiter_tisserand_invariant": "3.156",
        "epoch_osculation": "2458960.5",
        "eccentricity": ".5710891374333315",
        "semi_major_axis": "2.60017730877693",
        "inclination": "5.771967244796903",
        "ascending_node_longitude": "27.48024702435902",
        "orbital_period": "1531.450178582709",
        "perihelion_distance": "1.115244292333792",
        "perihelion_argument": "195.9154830193567",
        "aphelion_distance": "4.085110325220069",
        "perihelion_time": "2458971.714388695713",
        "mean_anomaly": "357.3638189561002",
        "mean_motion": ".2350713102094934",
        "equinox": "J2000",
        "orbit_class": {
            "orbit_class_type": "AMO",
            "orbit_class_description": "Near-Earth asteroid orbits similar to that of 1221 Amor",
            "orbit_class_range": "1.017 AU < q (perihelion) < 1.3 AU"
        }
    },
    "is_sentry_object": false
}